STARLINK-4749           
1 53818U 22114A   22289.25001157 -.00083582  00000+0 -59553-3 0  9996
2 53818  53.2151 124.1672 0001040 111.1216 297.2733 15.73259458  4854
STARLINK-4738           
1 53819U 22114B   22289.25001157  .00025427  00000+0  18558-3 0  9999
2 53819  53.2151 124.1597 0000766  67.2324 344.3213 15.73130981  4852
STARLINK-4758           
1 53820U 22114C   22288.91668981 -.00002271  00000+0 -11763-4 0  9993
2 53820  53.2175 125.8195 0001550 125.0960 195.0884 15.73205116  4806
STARLINK-4752           
1 53821U 22114D   22288.91668981 -.00001389  00000+0 -57475-5 0  9994
2 53821  53.2175 125.8066 0001149  82.7226 241.2253 15.72328400  4807
STARLINK-4748           
1 53823U 22114F   22289.25001157  .00136686  00000+0  96581-3 0  9996
2 53823  53.2171 122.6145 0001271  52.9458  32.7377 15.73120829  4873
STARLINK-4757           
1 53824U 22114G   22289.25001157 -.00052720  00000+0 -37448-3 0  9992
2 53824  53.2151 124.1656 0001266  80.7938 332.0196 15.73143556  4857
STARLINK-4751           
1 53825U 22114H   22288.91668981  .00001064  00000+0  12003-4 0  9993
2 53825  53.2139 125.8112 0001077  80.8375 242.4125 15.73181484  4808
STARLINK-4756           
1 53826U 22114J   22289.25001157  .00016069  00000+0  11926-3 0  9991
2 53826  53.2160 124.1563 0001303 135.6046 279.5763 15.73086818  4850
STARLINK-4764           
1 53827U 22114K   22288.91668981 -.00002503  00000+0 -13416-4 0  9995
2 53827  53.2175 125.8106 0001320  76.6634 247.6937 15.73205229  4807
STARLINK-4760           
1 53828U 22114L   22288.91668981 -.00002596  00000+0 -14080-4 0  9996
2 53828  53.2175 125.8063 0001314 127.3639 199.3776 15.73205325  4803
STARLINK-4759           
1 53829U 22114M   22288.91668981 -.00002172  00000+0 -11061-4 0  9993
2 53829  53.2174 125.8096 0001224  85.1775 239.7741 15.73206178  1301
STARLINK-4761           
1 53830U 22114N   22289.25001157 -.00116513  00000+0 -83419-3 0  9999
2 53830  53.2140 124.1510 0000753  93.1895 323.5629 15.73287453  4852
STARLINK-4649           
1 53831U 22114P   22288.91668981 -.00135213  00000+0 -97383-3 0  9999
2 53831  53.2139 125.8061 0001096  97.8320 228.0099 15.73217454  4804
STARLINK-4747           
1 53832U 22114Q   22288.91668981 -.00130268  00000+0 -93688-3 0  9999
2 53832  53.2138 125.7981 0001077  86.3069 242.9899 15.73232838  4802
STARLINK-4771           
1 53833U 22114R   22288.91668981 -.00010157  00000+0 -67971-4 0  9991
2 53833  53.2153 125.8005 0001301  97.2829 230.1307 15.73222730  4806
STARLINK-4737           
1 53834U 22114S   22289.25001157  .00050824  00000+0  36561-3 0  9999
2 53834  53.2138 124.1459 0001794 124.4521 294.8782 15.73118321  4852
STARLINK-4783           
1 53835U 22114T   22289.25001157 -.00004570  00000+0 -28206-4 0  9997
2 53835  53.2153 124.1477 0001078  92.5941 324.7833 15.73169595  4855
STARLINK-4778           
1 53836U 22114U   22288.91668981 -.00002408  00000+0 -12745-4 0  9993
2 53836  53.2175 125.7970 0001009 123.5097 208.0008 15.73205189  4809
STARLINK-4776           
1 53837U 22114V   22288.91668981  .00098184  00000+0  69746-3 0  9990
2 53837  53.2143 125.8001 0000729  93.5759 235.9845 15.73145571  4806
STARLINK-4773           
1 53838U 22114W   22289.25001157  .00050923  00000+0  36622-3 0  9991
2 53838  53.2142 124.1433 0000711  83.8790 337.1537 15.73124943  4853
STARLINK-4784           
1 53839U 22114X   22289.25001157 -.00038073  00000+0 -26791-3 0  9992
2 53839  53.2144 124.1470 0001050  83.5768 336.2629 15.73215229  4856
STARLINK-4766           
1 53840U 22114Y   22288.91668981 -.00002378  00000+0 -12527-4 0  9992
2 53840  53.2174 125.7923 0001228 141.3795 192.5154 15.73205179  4805
STARLINK-4750           
1 53841U 22114Z   22289.25001157  .00051120  00000+0  36792-3 0  9993
2 53841  53.2141 124.1411 0001196  95.0208 326.6696 15.73105284  4855
STARLINK-4754           
1 53842U 22114AA  22289.25001157 -.00009249  00000+0 -61632-4 0  9993
2 53842  53.2156 124.1345 0001136  88.8922 335.1599 15.73171972  4859
STARLINK-4769           
1 53843U 22114AB  22288.91668981  .00006792  00000+0  52821-4 0  9998
2 53843  53.2153 125.7889 0001047  84.8306 248.5402 15.73174576  4808
STARLINK-4745           
1 53844U 22114AC  22288.91668981 -.00002494  00000+0 -13348-4 0  9997
2 53844  53.2174 125.7875 0001512 112.6550 223.6243 15.73205236  4800
STARLINK-4753           
1 53845U 22114AD  22289.25001157  .00038082  00000+0  27530-3 0  9999
2 53845  53.2147 124.1406 0000893  85.7820 337.6454 15.73133767  4859
STARLINK-4746           
1 53846U 22114AE  22288.91668981 -.00014113  00000+0 -96318-4 0  9998
2 53846  53.2148 125.7854 0001358 102.0979 235.4765 15.73197146  4806
STARLINK-4777           
1 53847U 22114AF  22288.91668981 -.00078729  00000+0 -56239-3 0  9999
2 53847  53.2141 125.7843 0001143  79.8513 255.9902 15.73175616  4803
STARLINK-4780           
1 53848U 22114AG  22288.91668981 -.00002474  00000+0 -13206-4 0  9992
2 53848  53.2174 125.7827 0001495 121.4113 217.2525 15.73205229  4808
STARLINK-4770           
1 53849U 22114AH  22288.91668981  .00012722  00000+0  94920-4 0  9990
2 53849  53.2148 125.7871 0001196  97.3833 239.5003 15.73200186  1304
STARLINK-4767           
1 53850U 22114AJ  22288.91668981 -.00001661  00000+0 -74290-5 0  9993
2 53850  53.2141 125.7758 0001119  85.4866 255.0311 15.73188279  4803
STARLINK-4755           
1 53851U 22114AK  22288.91668981 -.00054174  00000+0 -38386-3 0  9995
2 53851  53.2141 125.7810 0001124 104.0436 234.1536 15.73212447  4802
STARLINK-4797           
1 53852U 22114AL  22289.25001157  .00017578  00000+0  12984-3 0  9991
2 53852  53.2146 124.1247 0000666 113.0238 317.6529 15.73118145  4859
STARLINK-4794           
1 53853U 22114AM  22288.91668981 -.00002618  00000+0 -14238-4 0  9994
2 53853  53.2174 125.7812 0001417 118.6336 220.6262 15.73205325  4800
STARLINK-4800           
1 53854U 22114AN  22288.91668981 -.00008376  00000+0 -55216-4 0  9993
2 53854  53.2149 125.7752 0001200 102.1852 240.6182 15.73243126  4801
STARLINK-4703           
1 53855U 22114AP  22288.91668981 -.00002462  00000+0 -13130-4 0  9993
2 53855  53.2174 125.7801 0001243 124.7389 215.1171 15.73205224  4809
STARLINK-4795           
1 53856U 22114AQ  22288.91668981 -.00002494  00000+0 -13352-4 0  9995
2 53856  53.2174 125.7683 0001343 125.6183 220.1987 15.73205246  4806
STARLINK-4809           
1 53857U 22114AR  22288.91668981 -.00139515  00000+0 -10052-2 0  9993
2 53857  53.2141 125.7740 0001091 106.3127 234.9692 15.73223645  4808
STARLINK-4798           
1 53858U 22114AS  22289.25001157 -.00017652  00000+0 -12194-3 0  9995
2 53858  53.2147 124.1212 0001015 106.4445 325.9754 15.73139676  4857
STARLINK-4790           
1 53859U 22114AT  22289.25001157  .00051499  00000+0  37066-3 0  9996
2 53859  53.2140 124.1201 0001180 100.2267 331.0365 15.73101372  4854
STARLINK-4799           
1 53860U 22114AU  22288.91668981  .00004107  00000+0  33709-4 0  9999
2 53860  53.2158 125.7657 0001005 100.6859 244.6120 15.73164005  4809
STARLINK-4781           
1 53861U 22114AV  22288.91668981 -.00002490  00000+0 -13325-4 0  9997
2 53861  53.2174 125.7718 0001310 127.0032 217.0255 15.73205244  4805
STARLINK-4792           
1 53862U 22114AW  22289.25001157  .00050798  00000+0  36574-3 0  9994
2 53862  53.2141 124.1130 0001116  96.1775 339.2569 15.73099005  4851
STARLINK-4788           
1 53863U 22114AX  22289.25001157  .00044446  00000+0  32058-3 0  9991
2 53863  53.2140 124.1145 0001313  89.4623 344.1817 15.73115142  4855
STARLINK-4779           
1 53864U 22114AY  22289.25001157  .00169955  00000+0  11920-2 0  9999
2 53864  53.2158 124.1107 0001004  94.9857 341.1438 15.73180668  4851
STARLINK-4785           
1 53865U 22114AZ  22289.25001157 -.00072860  00000+0 -51858-3 0  9995
2 53865  53.2142 124.1114 0001222 101.4542 334.4756 15.73228788  4854
STARLINK-4762           
1 53866U 22114BA  22288.91668981 -.00002518  00000+0 -13528-4 0  9998
2 53866  53.2174 125.7615 0001352 122.6589 226.7348 15.73205263  4801
STARLINK-4793           
1 53867U 22114BB  22288.91668981 -.00002544  00000+0 -13707-4 0  9997
2 53867  53.2174 125.7633 0001575 118.1985 230.0029 15.73205274  4805
STARLINK-4789           
1 53868U 22114BC  22288.91668981 -.00002465  00000+0 -13147-4 0  9998
2 53868  53.2174 125.7511 0001427 142.2792 215.6973 15.73205250  4802
STARLINK-4810           
1 53869U 22114BD  22289.25001157 -.00059566  00000+0 -42283-3 0  9999
2 53869  53.2145 124.1085 0001124 105.9392 331.7465 15.73209708  4859
STARLINK-4732           
1 53870U 22114BE  22288.91668981 -.00002517  00000+0 -13522-4 0  9996
2 53870  53.2174 125.7592 0001096 119.2098 231.3761 15.73205263  4803
STARLINK-4740           
1 53871U 22114BF  22289.25001157  .00000021  00000+0  45669-5 0  9995
2 53871  53.2143 124.1026 0000771 102.4226 337.8272 15.73123587  4864
CHUANGXIN 16B (CX-16B)  
1 53876U 22102B   22288.68388440  .00005127  00000+0  48138-3 0  9990
2 53876  28.9999  24.7671 0005243  82.0420 278.0770 14.91999099  3873
YUNHAI-1 03             
1 53877U 22115A   22289.13766934  .00000385  00000+0  15710-3 0  9995
2 53877  98.4979 287.3814 0001431  86.7810 273.3539 14.32806397  3615
CZ-2D R/B               
1 53878U 22115B   22289.23486502  .00001399  00000+0  22761-3 0  9997
2 53878  98.5466 289.0746 0123258 324.2183  35.0783 14.67977039  3711
SOYUZ-MS 22             
1 53879U 22116A   22288.57211873  .00015559  00000+0  27937-3 0  9995
2 53879  51.6417 100.1612 0003375 306.6409 164.3407 15.50068412363857
2022-118A               
1 53884U 22118A   22288.77955550  .00006335  00000+0  27120-3 0  9998
2 53884  97.5204 295.3137 0014971 182.2208 282.0236 15.23058247  3173
2022-118B               
1 53885U 22118B   22289.15734584  .00008831  00000+0  36932-3 0  9998
2 53885  97.5205 295.7139 0012056 186.9738 237.6349 15.23765221  3226
